<?xml version="1.0" encoding="UTF-8"?>
<ndm xmlns:xsi="http://www.w3.org/2001/XMLSchema-instance" xsi:noNamespaceSchemaLocation="https://sanaregistry.org/r/ndmxml_unqualified/ndmxml-2.0.0-master-2.0.xsd">
<omm id="CCSDS_OMM_VERS" version="2.0">
<header><CREATION_DATE/><ORIGINATOR/></header><body><segment><metadata><OBJECT_NAME>KUIPER-00044</OBJECT_NAME><OBJECT_ID>2025-134F</OBJECT_ID><CENTER_NAME>EARTH</CENTER_NAME><REF_FRAME>TEME</REF_FRAME><TIME_SYSTEM>UTC</TIME_SYSTEM><MEAN_ELEMENT_THEORY>SGP4</MEAN_ELEMENT_THEORY></metadata><data><meanElements><EPOCH>2025-11-28T10:55:46.485696</EPOCH><MEAN_MOTION>14.79957811</MEAN_MOTION><ECCENTRICITY>.00110964</ECCENTRICITY><INCLINATION>51.9005</INCLINATION><RA_OF_ASC_NODE>334.2526</RA_OF_ASC_NODE><ARG_OF_PERICENTER>298.1109</ARG_OF_PERICENTER><MEAN_ANOMALY>61.8732</MEAN_ANOMALY></meanElements><tleParameters><EPHEMERIS_TYPE>0</EPHEMERIS_TYPE><CLASSIFICATION_TYPE>U</CLASSIFICATION_TYPE><NORAD_CAT_ID>64505</NORAD_CAT_ID><ELEMENT_SET_NO>999</ELEMENT_SET_NO><REV_AT_EPOCH>2489</REV_AT_EPOCH><BSTAR>-.13040061E-3</BSTAR><MEAN_MOTION_DOT>-.122E-4</MEAN_MOTION_DOT><MEAN_MOTION_DDOT>0</MEAN_MOTION_DDOT></tleParameters></data></segment></body></omm>
<omm id="CCSDS_OMM_VERS" version="2.0">
<header><CREATION_DATE/><ORIGINATOR/></header><body><segment><metadata><OBJECT_NAME>KUIPER-00046</OBJECT_NAME><OBJECT_ID>2025-134G</OBJECT_ID><CENTER_NAME>EARTH</CENTER_NAME><REF_FRAME>TEME</REF_FRAME><TIME_SYSTEM>UTC</TIME_SYSTEM><MEAN_ELEMENT_THEORY>SGP4</MEAN_ELEMENT_THEORY></metadata><data><meanElements><EPOCH>2025-11-28T09:19:45.557472</EPOCH><MEAN_MOTION>14.80329819</MEAN_MOTION><ECCENTRICITY>.00121231</ECCENTRICITY><INCLINATION>51.9002</INCLINATION><RA_OF_ASC_NODE>330.9801</RA_OF_ASC_NODE><ARG_OF_PERICENTER>308.8714</ARG_OF_PERICENTER><MEAN_ANOMALY>51.1166</MEAN_ANOMALY></meanElements><tleParameters><EPHEMERIS_TYPE>0</EPHEMERIS_TYPE><CLASSIFICATION_TYPE>U</CLASSIFICATION_TYPE><NORAD_CAT_ID>64506</NORAD_CAT_ID><ELEMENT_SET_NO>999</ELEMENT_SET_NO><REV_AT_EPOCH>2493</REV_AT_EPOCH><BSTAR>.78004495E-3</BSTAR><MEAN_MOTION_DOT>.5791E-4</MEAN_MOTION_DOT><MEAN_MOTION_DDOT>0</MEAN_MOTION_DDOT></tleParameters></data></segment></body></omm>
<omm id="CCSDS_OMM_VERS" version="2.0">
<header><CREATION_DATE/><ORIGINATOR/></header><body><segment><metadata><OBJECT_NAME>KUIPER-00047</OBJECT_NAME><OBJECT_ID>2025-134H</OBJECT_ID><CENTER_NAME>EARTH</CENTER_NAME><REF_FRAME>TEME</REF_FRAME><TIME_SYSTEM>UTC</TIME_SYSTEM><MEAN_ELEMENT_THEORY>SGP4</MEAN_ELEMENT_THEORY></metadata><data><meanElements><EPOCH>2025-11-28T07:51:53.314560</EPOCH><MEAN_MOTION>14.82807462</MEAN_MOTION><ECCENTRICITY>.0008054</ECCENTRICITY><INCLINATION>51.8997</INCLINATION><RA_OF_ASC_NODE>303.1738</RA_OF_ASC_NODE><ARG_OF_PERICENTER>322.3753</ARG_OF_PERICENTER><MEAN_ANOMALY>37.6646</MEAN_ANOMALY></meanElements><tleParameters><EPHEMERIS_TYPE>0</EPHEMERIS_TYPE><CLASSIFICATION_TYPE>U</CLASSIFICATION_TYPE><NORAD_CAT_ID>64507</NORAD_CAT_ID><ELEMENT_SET_NO>999</ELEMENT_SET_NO><REV_AT_EPOCH>2531</REV_AT_EPOCH><BSTAR>.67328261E-3</BSTAR><MEAN_MOTION_DOT>.5277E-4</MEAN_MOTION_DOT><MEAN_MOTION_DDOT>0</MEAN_MOTION_DDOT></tleParameters></data></segment></body></omm>
<omm id="CCSDS_OMM_VERS" version="2.0">
<header><CREATION_DATE/><ORIGINATOR/></header><body><segment><metadata><OBJECT_NAME>KUIPER-00048</OBJECT_NAME><OBJECT_ID>2025-134J</OBJECT_ID><CENTER_NAME>EARTH</CENTER_NAME><REF_FRAME>TEME</REF_FRAME><TIME_SYSTEM>UTC</TIME_SYSTEM><MEAN_ELEMENT_THEORY>SGP4</MEAN_ELEMENT_THEORY></metadata><data><meanElements><EPOCH>2025-11-28T14:59:18.622176</EPOCH><MEAN_MOTION>14.79993970</MEAN_MOTION><ECCENTRICITY>.00028647</ECCENTRICITY><INCLINATION>51.9000</INCLINATION><RA_OF_ASC_NODE>302.4952</RA_OF_ASC_NODE><ARG_OF_PERICENTER>80.8980</ARG_OF_PERICENTER><MEAN_ANOMALY>279.2307</MEAN_ANOMALY></meanElements><tleParameters><EPHEMERIS_TYPE>0</EPHEMERIS_TYPE><CLASSIFICATION_TYPE>U</CLASSIFICATION_TYPE><NORAD_CAT_ID>64508</NORAD_CAT_ID><ELEMENT_SET_NO>999</ELEMENT_SET_NO><REV_AT_EPOCH>2535</REV_AT_EPOCH><BSTAR>.73164391E-3</BSTAR><MEAN_MOTION_DOT>.5369E-4</MEAN_MOTION_DOT><MEAN_MOTION_DDOT>0</MEAN_MOTION_DDOT></tleParameters></data></segment></body></omm>
<omm id="CCSDS_OMM_VERS" version="2.0">
<header><CREATION_DATE/><ORIGINATOR/></header><body><segment><metadata><OBJECT_NAME>KUIPER-00049</OBJECT_NAME><OBJECT_ID>2025-134K</OBJECT_ID><CENTER_NAME>EARTH</CENTER_NAME><REF_FRAME>TEME</REF_FRAME><TIME_SYSTEM>UTC</TIME_SYSTEM><MEAN_ELEMENT_THEORY>SGP4</MEAN_ELEMENT_THEORY></metadata><data><meanElements><EPOCH>2025-11-28T09:45:36.521280</EPOCH><MEAN_MOTION>14.79975019</MEAN_MOTION><ECCENTRICITY>.00028514</ECCENTRICITY><INCLINATION>51.9003</INCLINATION><RA_OF_ASC_NODE>316.9268</RA_OF_ASC_NODE><ARG_OF_PERICENTER>320.2305</ARG_OF_PERICENTER><MEAN_ANOMALY>39.8448</MEAN_ANOMALY></meanElements><tleParameters><EPHEMERIS_TYPE>0</EPHEMERIS_TYPE><CLASSIFICATION_TYPE>U</CLASSIFICATION_TYPE><NORAD_CAT_ID>64509</NORAD_CAT_ID><ELEMENT_SET_NO>999</ELEMENT_SET_NO><REV_AT_EPOCH>2513</REV_AT_EPOCH><BSTAR>.20175604E-2</BSTAR><MEAN_MOTION_DOT>.1521E-3</MEAN_MOTION_DOT><MEAN_MOTION_DDOT>0</MEAN_MOTION_DDOT></tleParameters></data></segment></body></omm>
<omm id="CCSDS_OMM_VERS" version="2.0">
<header><CREATION_DATE/><ORIGINATOR/></header><body><segment><metadata><OBJECT_NAME>KUIPER-00050</OBJECT_NAME><OBJECT_ID>2025-134L</OBJECT_ID><CENTER_NAME>EARTH</CENTER_NAME><REF_FRAME>TEME</REF_FRAME><TIME_SYSTEM>UTC</TIME_SYSTEM><MEAN_ELEMENT_THEORY>SGP4</MEAN_ELEMENT_THEORY></metadata><data><meanElements><EPOCH>2025-11-28T08:28:41.086848</EPOCH><MEAN_MOTION>14.96387959</MEAN_MOTION><ECCENTRICITY>.00048436</ECCENTRICITY><INCLINATION>51.8909</INCLINATION><RA_OF_ASC_NODE>312.3202</RA_OF_ASC_NODE><ARG_OF_PERICENTER>350.8855</ARG_OF_PERICENTER><MEAN_ANOMALY>9.2025</MEAN_ANOMALY></meanElements><tleParameters><EPHEMERIS_TYPE>0</EPHEMERIS_TYPE><CLASSIFICATION_TYPE>U</CLASSIFICATION_TYPE><NORAD_CAT_ID>64510</NORAD_CAT_ID><ELEMENT_SET_NO>999</ELEMENT_SET_NO><REV_AT_EPOCH>2519</REV_AT_EPOCH><BSTAR>.74586092E-3</BSTAR><MEAN_MOTION_DOT>.8294E-4</MEAN_MOTION_DOT><MEAN_MOTION_DDOT>0</MEAN_MOTION_DDOT></tleParameters></data></segment></body></omm>
<omm id="CCSDS_OMM_VERS" version="2.0">
<header><CREATION_DATE/><ORIGINATOR/></header><body><segment><metadata><OBJECT_NAME>KUIPER-00051</OBJECT_NAME><OBJECT_ID>2025-134M</OBJECT_ID><CENTER_NAME>EARTH</CENTER_NAME><REF_FRAME>TEME</REF_FRAME><TIME_SYSTEM>UTC</TIME_SYSTEM><MEAN_ELEMENT_THEORY>SGP4</MEAN_ELEMENT_THEORY></metadata><data><meanElements><EPOCH>2025-11-28T08:12:18.842400</EPOCH><MEAN_MOTION>14.79920569</MEAN_MOTION><ECCENTRICITY>.00017856</ECCENTRICITY><INCLINATION>51.9032</INCLINATION><RA_OF_ASC_NODE>314.7780</RA_OF_ASC_NODE><ARG_OF_PERICENTER>328.3220</ARG_OF_PERICENTER><MEAN_ANOMALY>31.7634</MEAN_ANOMALY></meanElements><tleParameters><EPHEMERIS_TYPE>0</EPHEMERIS_TYPE><CLASSIFICATION_TYPE>U</CLASSIFICATION_TYPE><NORAD_CAT_ID>64511</NORAD_CAT_ID><ELEMENT_SET_NO>999</ELEMENT_SET_NO><REV_AT_EPOCH>2515</REV_AT_EPOCH><BSTAR>.13609275E-2</BSTAR><MEAN_MOTION_DOT>.10166E-3</MEAN_MOTION_DOT><MEAN_MOTION_DDOT>0</MEAN_MOTION_DDOT></tleParameters></data></segment></body></omm>
<omm id="CCSDS_OMM_VERS" version="2.0">
<header><CREATION_DATE/><ORIGINATOR/></header><body><segment><metadata><OBJECT_NAME>KUIPER-00052</OBJECT_NAME><OBJECT_ID>2025-134N</OBJECT_ID><CENTER_NAME>EARTH</CENTER_NAME><REF_FRAME>TEME</REF_FRAME><TIME_SYSTEM>UTC</TIME_SYSTEM><MEAN_ELEMENT_THEORY>SGP4</MEAN_ELEMENT_THEORY></metadata><data><meanElements><EPOCH>2025-11-28T03:03:18.343296</EPOCH><MEAN_MOTION>15.68626650</MEAN_MOTION><ECCENTRICITY>.00055896</ECCENTRICITY><INCLINATION>51.8653</INCLINATION><RA_OF_ASC_NODE>269.0053</RA_OF_ASC_NODE><ARG_OF_PERICENTER>41.7033</ARG_OF_PERICENTER><MEAN_ANOMALY>318.4392</MEAN_ANOMALY></meanElements><tleParameters><EPHEMERIS_TYPE>0</EPHEMERIS_TYPE><CLASSIFICATION_TYPE>U</CLASSIFICATION_TYPE><NORAD_CAT_ID>64512</NORAD_CAT_ID><ELEMENT_SET_NO>999</ELEMENT_SET_NO><REV_AT_EPOCH>2576</REV_AT_EPOCH><BSTAR>.17387204E-2</BSTAR><MEAN_MOTION_DOT>.206338E-2</MEAN_MOTION_DOT><MEAN_MOTION_DDOT>0</MEAN_MOTION_DDOT></tleParameters></data></segment></body></omm>

</ndm>
